UID,state,body represents - muni,Body Name,state,electoral.district,office.name,official.name,address,phone,website,email,facebook,twitter,OCDID
CIe00573,NY,New York,,NY,New York City Council District 1,Council Member District 1,Margaret S. Chin,,,http://council.nyc.gov/district-1/,,,,ocd-division/country:us/state:ny/place:new_york/council_district:1
CIe00584,NY,New York,,NY,New York City Council District 2,Council Member District 2,Rosie Mendez,,,http://council.nyc.gov/district-2/,,,,ocd-division/country:us/state:ny/place:new_york/council_district:2
CIe00595,NY,New York,,NY,New York City Council District 3,Council Member District 3,Corey Johnson,,,http://council.nyc.gov/district-3/,,,,ocd-division/country:us/state:ny/place:new_york/council_district:3
CIe00606,NY,New York,,NY,New York City Council District 4,Council Member District 4,Daniel R. Garodnick,,,http://council.nyc.gov/district-4/,,,,ocd-division/country:us/state:ny/place:new_york/council_district:4
CIe00617,NY,New York,,NY,New York City Council District 5,Council Member District 5,Ben Kallos,,,http://council.nyc.gov/district-5/,,,,ocd-division/country:us/state:ny/place:new_york/council_district:5
CIe00620,NY,New York,,NY,New York City Council District 6,Council Member District 6,Helen Rosenthal,,,http://council.nyc.gov/district-6/,,,,ocd-division/country:us/state:ny/place:new_york/council_district:6
CIe00621,NY,New York,,NY,New York City Council District 7,Council Member District 7,Mark Levine,,,http://council.nyc.gov/district-7/,,,,ocd-division/country:us/state:ny/place:new_york/council_district:7
CIe00622,NY,New York,,NY,New York City Council District 8,Council Member District 8,Melissa Mark-Viverito,,,http://council.nyc.gov/district-8/,,,,ocd-division/country:us/state:ny/place:new_york/council_district:8
CIe00623,NY,New York,,NY,New York City Council District 9,Council Member District 9,Bill Perkins,,,http://council.nyc.gov/district-9/,,,,ocd-division/country:us/state:ny/place:new_york/council_district:9
CIe00574,NY,New York,,NY,New York City Council District 10,Council Member District 10,Ydanis Rodriguez,,,http://council.nyc.gov/district-10/,,,,ocd-division/country:us/state:ny/place:new_york/council_district:10
CIe00575,NY,New York,,NY,New York City Council District 11,Council Member District 11,Andrew Cohen,,,http://council.nyc.gov/district-11/,,,,ocd-division/country:us/state:ny/place:new_york/council_district:11
CIe00576,NY,New York,,NY,New York City Council District 12,Council Member District 12,Andy King,,,http://council.nyc.gov/district-12/,,,,ocd-division/country:us/state:ny/place:new_york/council_district:12
CIe00577,NY,New York,,NY,New York City Council District 13,Council Member District 13,James Vacca,,,http://council.nyc.gov/district-13/,,,,ocd-division/country:us/state:ny/place:new_york/council_district:13
CIe00578,NY,New York,,NY,New York City Council District 14,Council Member District 14,Fernando Cabrera,,,http://council.nyc.gov/district-14/,,,,ocd-division/country:us/state:ny/place:new_york/council_district:14
CIe00579,NY,New York,,NY,New York City Council District 15,Council Member District 15,Ritchie J. Torres,,,http://council.nyc.gov/district-15/,,,,ocd-division/country:us/state:ny/place:new_york/council_district:15
CIe00580,NY,New York,,NY,New York City Council District 16,Council Member District 16,Vanessa L. Gibson,,,http://council.nyc.gov/district-16/,,,,ocd-division/country:us/state:ny/place:new_york/council_district:16
CIe00581,NY,New York,,NY,New York City Council District 17,Council Member District 17,Rafael Salamanca Jr,,,http://council.nyc.gov/district-17/,,,,ocd-division/country:us/state:ny/place:new_york/council_district:17
CIe00582,NY,New York,,NY,New York City Council District 18,Council Member District 18,Annabel Palma,,,http://council.nyc.gov/district-18/,,,,ocd-division/country:us/state:ny/place:new_york/council_district:18
CIe00583,NY,New York,,NY,New York City Council District 19,Council Member District 19,Paul Vallone,,,http://council.nyc.gov/district-19/,,,,ocd-division/country:us/state:ny/place:new_york/council_district:19
CIe00585,NY,New York,,NY,New York City Council District 20,Council Member District 20,Peter Koo,,,http://council.nyc.gov/district-20/,,,,ocd-division/country:us/state:ny/place:new_york/council_district:20
CIe00586,NY,New York,,NY,New York City Council District 21,Council Member District 21,Julissa Ferreras-Copeland,,,http://council.nyc.gov/district-21/,,,,ocd-division/country:us/state:ny/place:new_york/council_district:21
CIe00587,NY,New York,,NY,New York City Council District 22,Council Member District 22,Costa Constantinides,,,http://council.nyc.gov/district-22/,,,,ocd-division/country:us/state:ny/place:new_york/council_district:22
CIe00588,NY,New York,,NY,New York City Council District 23,Council Member District 23,Barry Grodenchik,,,http://council.nyc.gov/district-23/,,,,ocd-division/country:us/state:ny/place:new_york/council_district:23
CIe00589,NY,New York,,NY,New York City Council District 24,Council Member District 24,Rory I. Lancman,,,http://council.nyc.gov/district-24/,,,,ocd-division/country:us/state:ny/place:new_york/council_district:24
CIe00590,NY,New York,,NY,New York City Council District 25,Council Member District 25,Daniel Dromm,,,http://council.nyc.gov/district-25/,,,,ocd-division/country:us/state:ny/place:new_york/council_district:25
CIe00591,NY,New York,,NY,New York City Council District 26,Council Member District 26,Jimmy Van Bramer,,,http://council.nyc.gov/district-26/,,,,ocd-division/country:us/state:ny/place:new_york/council_district:26
CIe00592,NY,New York,,NY,New York City Council District 27,Council Member District 27,I. Daneek Miller,,,http://council.nyc.gov/district-27/,,,,ocd-division/country:us/state:ny/place:new_york/council_district:27
CIe00593,NY,New York,,NY,New York City Council District 28,Council Member District 28,Ruben Wills,,,http://council.nyc.gov/district-28/,,,,ocd-division/country:us/state:ny/place:new_york/council_district:28
CIe00594,NY,New York,,NY,New York City Council District 29,Council Member District 29,Karen Koslowitz,,,http://council.nyc.gov/district-29/,,,,ocd-division/country:us/state:ny/place:new_york/council_district:29
CIe00596,NY,New York,,NY,New York City Council District 30,Council Member District 30,Elizabeth S. Crowley,,,http://council.nyc.gov/district-30/,,,,ocd-division/country:us/state:ny/place:new_york/council_district:30
CIe00597,NY,New York,,NY,New York City Council District 31,Council Member District 31,Donovan  J. Richards,,,http://council.nyc.gov/district-31/,,,,ocd-division/country:us/state:ny/place:new_york/council_district:31
CIe00598,NY,New York,,NY,New York City Council District 32,Council Member District 32,Eric A. Ulrich,,,http://council.nyc.gov/district-32/,,,,ocd-division/country:us/state:ny/place:new_york/council_district:32
CIe00599,NY,New York,,NY,New York City Council District 33,Council Member District 33,Stephen T. Levin,,,http://council.nyc.gov/district-33/,,,,ocd-division/country:us/state:ny/place:new_york/council_district:33
CIe00600,NY,New York,,NY,New York City Council District 34,Council Member District 34,Antonio Reynoso,,,http://council.nyc.gov/district-34/,,,,ocd-division/country:us/state:ny/place:new_york/council_district:34
CIe00601,NY,New York,,NY,New York City Council District 35,Council Member District 35,Laurie A. Cumbo,,,http://council.nyc.gov/district-35/,,,,ocd-division/country:us/state:ny/place:new_york/council_district:35
CIe00602,NY,New York,,NY,New York City Council District 36,Council Member District 36,Robert E. Cornegy Jr.,,,http://council.nyc.gov/district-36/,,,,ocd-division/country:us/state:ny/place:new_york/council_district:36
CIe00603,NY,New York,,NY,New York City Council District 37,Council Member District 37,Rafael L. Espinal Jr.,,,http://council.nyc.gov/district-37/,,,,ocd-division/country:us/state:ny/place:new_york/council_district:37
CIe00604,NY,New York,,NY,New York City Council District 38,Council Member District 38,Carlos Menchaca,,,http://council.nyc.gov/district-38/,,,,ocd-division/country:us/state:ny/place:new_york/council_district:38
CIe00605,NY,New York,,NY,New York City Council District 39,Council Member District 39,Brad Lander,,,http://council.nyc.gov/district-39/,,,,ocd-division/country:us/state:ny/place:new_york/council_district:39
CIe00607,NY,New York,,NY,New York City Council District 40,Council Member District 40,Mathieu Eugene,,,http://council.nyc.gov/district-40/,,,,ocd-division/country:us/state:ny/place:new_york/council_district:40
CIe00608,NY,New York,,NY,New York City Council District 41,Council Member District 41,Darlene Mealy,,,http://council.nyc.gov/district-41/,,,,ocd-division/country:us/state:ny/place:new_york/council_district:41
CIe00609,NY,New York,,NY,New York City Council District 42,Council Member District 42,Inez Barron,,,http://council.nyc.gov/district-42/,,,,ocd-division/country:us/state:ny/place:new_york/council_district:42
CIe00610,NY,New York,,NY,New York City Council District 43,Council Member District 43,Vincent Gentile,,,http://council.nyc.gov/district-43/,,,,ocd-division/country:us/state:ny/place:new_york/council_district:43
CIe00611,NY,New York,,NY,New York City Council District 44,Council Member District 44,David G. Greenfield,,,http://council.nyc.gov/district-44/,,,,ocd-division/country:us/state:ny/place:new_york/council_district:44
CIe00612,NY,New York,,NY,New York City Council District 45,Council Member District 45,Jumaane D. Williams,,,http://council.nyc.gov/district-45/,,,,ocd-division/country:us/state:ny/place:new_york/council_district:45
CIe00613,NY,New York,,NY,New York City Council District 46,Council Member District 46,Alan N. Maisel,,,http://council.nyc.gov/district-46/,,,,ocd-division/country:us/state:ny/place:new_york/council_district:46
CIe00614,NY,New York,,NY,New York City Council District 47,Council Member District 47,Mark Treyger,,,http://council.nyc.gov/district-47/,,,,ocd-division/country:us/state:ny/place:new_york/council_district:47
CIe00615,NY,New York,,NY,New York City Council District 48,Council Member District 48,Chaim M. Deutsch,,,http://council.nyc.gov/district-48/,,,,ocd-division/country:us/state:ny/place:new_york/council_district:48
CIe00616,NY,New York,,NY,New York City Council District 49,Council Member District 49,Deborah Rose,,,http://council.nyc.gov/district-49/,,,,ocd-division/country:us/state:ny/place:new_york/council_district:49
CIe00618,NY,New York,,NY,New York City Council District 50,Council Member District 50,Steven Matteo,,,http://council.nyc.gov/district-50/,,,,ocd-division/country:us/state:ny/place:new_york/council_district:50
CIe00619,NY,New York,,NY,New York City Council District 51,Council Member District 51,Joseph C. Borelli,,,http://council.nyc.gov/district-51/,,,,ocd-division/country:us/state:ny/place:new_york/council_district:51
CIe00570,NY,New York,,NY,New York City,Mayor,Bill de Blasio,"City Hall New York, NY 10007",212-NEW-YORK,http://www1.nyc.gov/office-of-the-mayor/index.page,,,,ocd-division/country:us/state:ny/place:new_york
